IRIDIUM 176             
1 43923U 19002B   23295.82295229  .00000078  00000+0  83999-5 0  9990
2 43923  86.6136  38.3175 0002422  94.0648 266.0846 14.72265590256771
IRIDIUM 175             
1 43928U 19002G   23295.74886906  .00001697  00000+0  26511-3 0  9997
2 43928  86.1560  24.9776 0002254  94.2129 265.9345 14.72257739256755
IRIDIUM 170             
1 43930U 19002J   23295.82912904  .00000382  00000+0  56689-4 0  9997
2 43930  86.6137  38.3197 0002197  95.4360 264.7107 14.72266354256784
IRIDIUM 177             
1 56727U 23068T   23295.86182200  .00002768  00000+0  36093-3 0  9990
2 56727  86.1961  68.4928 0002330  91.4318 268.7169 14.80207253 23120
IRIDIUM 174             
1 56728U 23068U   23295.85638969  .00002774  00000+0  36181-3 0  9993
2 56728  86.1969  68.5793 0002143  87.1075 273.0391 14.80206896 23122
IRIDIUM 178             
1 56729U 23068V   23295.91852183  .00002742  00000+0  35763-3 0  9997
2 56729  86.5756  74.7244 0002355  86.0104 274.1387 14.80208555 23139
IRIDIUM 179             
1 56730U 23068W   23295.91313414  .00002895  00000+0  37775-3 0  9992
2 56730  86.6763  75.8608 0002295  90.0763 270.0722 14.80208594 23136